[{"OBJECT_NAME":"STARLINK-36269","OBJECT_ID":"2026-008AD","EPOCH":"2026-03-09T09:18:32.952960","MEAN_MOTION":15.27599674,"ECCENTRICITY":9.872e-5,"INCLINATION":43.0007,"RA_OF_ASC_NODE":207.1226,"ARG_OF_PERICENTER":223.7297,"MEAN_ANOMALY":136.3477,"EPHEMERIS_TYPE":0,"CLASSIFICATION_TYPE":"U","NORAD_CAT_ID":67472,"ELEMENT_SET_NO":999,"REV_AT_EPOCH":952,"BSTAR":0.0012919086,"MEAN_MOTION_DOT":0.00035481,"MEAN_MOTION_DDOT":0},{"OBJECT_NAME":"COSMOS 2251 DEB","OBJECT_ID":"1993-036RB","EPOCH":"2026-03-09T01:08:04.800192","MEAN_MOTION":15.30699894,"ECCENTRICITY":0.00252965,"INCLINATION":73.7308,"RA_OF_ASC_NODE":76.2904,"ARG_OF_PERICENTER":263.9966,"MEAN_ANOMALY":95.8352,"EPHEMERIS_TYPE":0,"CLASSIFICATION_TYPE":"U","NORAD_CAT_ID":34410,"ELEMENT_SET_NO":999,"REV_AT_EPOCH":91089,"BSTAR":0.003018315,"MEAN_MOTION_DOT":0.00091531,"MEAN_MOTION_DDOT":0}]
